SKYSAT-C19              
1 46235U 20057BS  20252.74225872  .00008806  00000-0  59671-4 0  9996
2 46235  53.0004 334.5505 0016575  68.9940 291.2850 15.75831309  2998
FALCON 9 DEB            
1 46236U 20057BT  20253.19713694  .00460922  11590-4  32101-3 0  9990
2 46236  52.9978 330.1560 0070220 122.0280 238.7600 16.10072531  3473
2020-059A               
1 46265U 20059A   20253.23749802  .00047927  00000-0  54017-2 0  9994
2 46265  97.8803  76.9884 0004501 138.2461 222.0642 14.86393200  1372
2020-059B               
1 46266U 20059B   20252.75798171  .00000295  00000-0  38237-4 0  9999
2 46266  97.8846  76.5393 0006436 108.4330 251.7591 14.87884079  1309
2020-059C               
1 46267U 20059C   20252.75633812  .00000330  00000-0  41829-4 0  9991
2 46267  97.8720  76.5287 0007476 115.1176 245.0826 14.88164974  1292
CAPELLA-2               
1 46269U 20060B   20252.82358026  .00000135  00000-0  23873-4 0  9996
2 46269  45.1030 285.0636 0011131 317.5918  42.4095 15.09254134  1316
NUSAT-6 (HYPATIA)       
1 46272U 20061A   20252.82427666  .00000359  00000-0  22708-4 0  9992
2 46272  97.4681 325.8157 0006079 198.5434 161.5578 15.15060911   861
2020-061B               
1 46273U 20061B   20253.15411866  .00000244  00000-0  16477-4 0  9994
2 46273  97.4681 326.1406 0005660 197.7023 162.4013 15.15158044   918
2020-061C               
1 46274U 20061C   20253.15384062  .00000226  00000-0  15525-4 0  9995
2 46274  97.4682 326.1411 0005305 197.5540 162.5510 15.15227909   914
2020-061D               
1 46275U 20061D   20253.15094429  .00000170  00000-0  12280-4 0  9994
2 46275  97.4642 326.1419 0000758 135.4381 224.6912 15.15957850   911
